{
    "links": {
        "self": "http://www.neowsapp.com/rest/v1/neo/3651168?api_key=iIulBulltgU6a56xZRHN4H3l9WmuAYTsLGpBGhQ2"
    },
    "id": "3651168",
    "neo_reference_id": "3651168",
    "name": "(2013 TQ135)",
    "designation": "2013 TQ135",
    "nasa_jpl_url": "http://ssd.jpl.nasa.gov/sbdb.cgi?sstr=3651168",
    "absolute_magnitude_h": 24.9,
    "estimated_diameter": {
        "kilometers": {
            "estimated_diameter_min": 0.0278326768,
            "estimated_diameter_max": 0.0622357573
        },
        "meters": {
            "estimated_diameter_min": 27.8326768072,
            "estimated_diameter_max": 62.2357573367
        },
        "miles": {
            "estimated_diameter_min": 0.0172944182,
            "estimated_diameter_max": 0.0386714948
        },
        "feet": {
            "estimated_diameter_min": 91.3145593761,
            "estimated_diameter_max": 204.1855621004
        }
    },
    "is_potentially_hazardous_asteroid": false,
    "close_approach_data": [
        {
            "close_approach_date": "2013-10-12",
            "close_approach_date_full": "2013-Oct-12 15:51",
            "epoch_date_close_approach": 1381593060000,
            "relative_velocity": {
                "kilometers_per_second": "8.6778427902",
                "kilometers_per_hour": "31240.2340448425",
                "miles_per_hour": "19411.4665374745"
            },
            "miss_distance": {
                "astronomical": "0.0587850069",
                "lunar": "22.8673676841",
                "kilometers": "8794111.820175303",
                "miles": "5464407.6971050614"
            },
            "orbiting_body": "Earth"
        },
        {
            "close_approach_date": "2014-03-13",
            "close_approach_date_full": "2014-Mar-13 01:02",
            "epoch_date_close_approach": 1394672520000,
            "relative_velocity": {
                "kilometers_per_second": "10.0986441463",
                "kilometers_per_hour": "36355.118926549",
                "miles_per_hour": "22589.657090777"
            },
            "miss_distance": {
                "astronomical": "0.2673993678",
                "lunar": "104.0183540742",
                "kilometers": "40002375.862226586",
                "miles": "24856323.7577394468"
            },
            "orbiting_body": "Earth"
        },
        {
            "close_approach_date": "2129-10-04",
            "close_approach_date_full": "2129-Oct-04 09:20",
            "epoch_date_close_approach": 5041473600000,
            "relative_velocity": {
                "kilometers_per_second": "17.3821024351",
                "kilometers_per_hour": "62575.5687665364",
                "miles_per_hour": "38882.0249371848"
            },
            "miss_distance": {
                "astronomical": "0.4879864138",
                "lunar": "189.8267149682",
                "kilometers": "73001728.093418606",
                "miles": "45361170.4118285228"
            },
            "orbiting_body": "Earth"
        },
        {
            "close_approach_date": "2137-10-11",
            "close_approach_date_full": "2137-Oct-11 22:29",
            "epoch_date_close_approach": 5294586540000,
            "relative_velocity": {
                "kilometers_per_second": "9.7458096862",
                "kilometers_per_hour": "35084.9148704919",
                "miles_per_hour": "21800.4016871676"
            },
            "miss_distance": {
                "astronomical": "0.2224493336",
                "lunar": "86.5327907704",
                "kilometers": "33277946.489479432",
                "miles": "20677957.0989508816"
            },
            "orbiting_body": "Earth"
        }
    ],
    "orbital_data": {
        "orbit_id": "4",
        "orbit_determination_date": "2017-04-06 08:44:10",
        "first_observation_date": "2013-10-12",
        "last_observation_date": "2013-10-13",
        "data_arc_in_days": 1,
        "observations_used": 21,
        "orbit_uncertainty": "8",
        "minimum_orbit_intersection": ".0444889",
        "jupiter_tisserand_invariant": "5.595",
        "epoch_osculation": "2456577.5",
        "eccentricity": ".07919338704514209",
        "semi_major_axis": "1.103412993705326",
        "inclination": "16.70986549342024",
        "ascending_node_longitude": "198.0141702855501",
        "orbital_period": "423.3558523138389",
        "perihelion_distance": "1.016029981424181",
        "perihelion_argument": "229.8615849854259",
        "aphelion_distance": "1.190796005986471",
        "perihelion_time": "2456629.770972816052",
        "mean_anomaly": "315.5514583985743",
        "mean_motion": ".850348466975077",
        "equinox": "J2000",
        "orbit_class": {
            "orbit_class_type": "APO",
            "orbit_class_description": "Near-Earth asteroid orbits which cross the Earth’s orbit similar to that of 1862 Apollo",
            "orbit_class_range": "a (semi-major axis) > 1.0 AU; q (perihelion) < 1.017 AU"
        }
    },
    "is_sentry_object": false
}